ONEWEB-0661             
1 55821U 23029AB  24003.33133259  .00000024  00000+0  30687-4 0  9998
2 55821  87.8986 108.0636 0001582 125.5636 234.5641 13.14504447 42382
ONEWEB-0662             
1 55822U 23029AC  24003.29010241  .00000219  00000+0  55501-3 0  9996
2 55822  87.8990 108.0799 0001875 120.2680 239.8635 13.14503931 42449
ONEWEB-0663             
1 55823U 23029AD  24003.14646011  .00000330  00000+0  77885-3 0  9994
2 55823  87.9198  92.8326 0002005 119.3625 240.7709 13.20769405 43543
ONEWEB-0664             
1 55824U 23029AE  24003.29164818  .00000056  00000+0  10494-3 0  9999
2 55824  87.9199  92.8151 0001239 114.1913 245.9350 13.20770407 43578
ONEWEB-0665             
1 55825U 23029AF  24003.32815411  .00000044  00000+0  84808-4 0  9994
2 55825  87.8986 108.0396 0001732 120.9766 239.1534 13.14504673 42405
ONEWEB-0666             
1 55826U 23029AG  24002.75502492  .00000010  00000+0 -73931-5 0  9993
2 55826  87.9199  92.9135 0001667  88.3035 271.8289 13.20768757 42826
ONEWEB-0667             
1 55827U 23029AH  24002.74872023  .00000086  00000+0  18052-3 0  9996
2 55827  87.9200  92.8491 0001567 116.3475 243.7819 13.20770130 42817
ONEWEB-0669             
1 55828U 23029AJ  24003.27428682  .00000144  00000+0  32321-3 0  9994
2 55828  87.9198  92.7827 0001048  81.3177 278.8075 13.20774875 43566
